YUXING-3 06             
1 68199U 26052B   26087.94082774  .00006047  00000+0  37447-3 0  9996
2 68199  97.5376 163.9889 0012039 218.8424 141.1942 15.10092569  1933
