{
  "norad_id": 68199,
  "name": "YUXING-3 06",
  "history": [
    {
      "epoch": "2026-03-28T22:34:47.516736Z",
      "apogee_km": 544.2412634150451,
      "perigee_km": 527.5936031505871,
      "latitude_deg": 8.931035936273732e-05,
      "longitude_deg": -1.0631562307352438,
      "height_km": 545.4824050387328,
      "semi_major_axis_km": 6914.054433282816,
      "eccentricity": 0.0012039,
      "inclination_deg": 97.5376,
      "raan_deg": 163.9889,
      "arg_perigee_deg": 218.8424,
      "mean_anomaly_deg": 141.1942,
      "mean_motion_rev_day": 15.10092569
    }
  ]
}